NORAD_CAT_ID,OBJECT_NAME,OBJECT_TYPE,EPOCH,MEAN_MOTION,ECCENTRICITY,INCLINATION,RA_OF_ASC_NODE,ARG_OF_PERICENTER,MEAN_ANOMALY,BSTAR,MEAN_MOTION_DOT,MEAN_MOTION_DDOT,TLE_LINE0,TLE_LINE1,TLE_LINE2,SEMIMAJOR_AXIS,PERIOD,APOGEE,PERIGEE,DECAYED
51816.0,STARLINK-3603,PAYLOAD,2023-08-27 18:45:27,15.08840696,0.0001541,53.2175,161.1979,93.8063,266.3105,6.2851e-05,7.12e-06,0.0,0 STARLINK-3603,1 51816U 22017BA  23239.78156934  .00000712  00000-0  62851-4 0  9991,2 51816  53.2175 161.1979 0001541  93.8063 266.3105 15.08840696 84620,6917.878,95.438,540.809,538.677,0.0
51816.0,STARLINK-3603,PAYLOAD,2023-08-28 12:14:42,15.08839685,0.0001491,53.2171,157.9247,95.9668,264.1494,6.0107e-05,6.69e-06,0.0,0 STARLINK-3603,1 51816U 22017BA  23240.51020930  .00000669  00000-0  60107-4 0  9993,2 51816  53.2171 157.9247 0001491  95.9668 264.1494 15.08839685 84617,6917.881,95.438,540.778,538.715,0.0
51816.0,STARLINK-3603,PAYLOAD,2023-08-29 00:57:46,15.08847867,0.0001407,53.2163,155.5444,101.3703,258.7447,6.5126e-05,7.49e-06,0.0,0 STARLINK-3603,1 51816U 22017BA  23241.04012321  .00000749  00000-0  65126-4 0  9992,2 51816  53.2163 155.5444 0001407 101.3703 258.7447 15.08847867 84810,6917.856,95.437,540.695,538.748,0.0
51816.0,STARLINK-3603,PAYLOAD,2023-08-29 04:08:32,15.08849413,0.0001437,53.2163,154.9496,102.6183,257.4969,8.1126e-05,1.004e-05,0.0,0 STARLINK-3603,1 51816U 22017BA  23241.17260153  .00001004  00000-0  81126-4 0  9997,2 51816  53.2163 154.9496 0001437 102.6183 257.4969 15.08849413 84712,6917.852,95.437,540.711,538.723,0.0
51816.0,STARLINK-3603,PAYLOAD,2023-08-30 00:48:34,15.0883881,0.0001327,53.2167,151.0847,89.1372,270.9772,3.1296e-05,2.1e-06,0.0,0 STARLINK-3603,1 51816U 22017BA  23242.03373245  .00000210  00000-0  31296-4 0  9991,2 51816  53.2167 151.0847 0001327  89.1372 270.9772 15.08838810 84969,6917.884,95.438,540.667,538.831,0.0
51816.0,STARLINK-3603,PAYLOAD,2023-08-30 03:59:20,15.08838261,0.0001391,53.2166,150.4892,94.7071,265.408,8.1984e-06,-1.57e-06,0.0,0 STARLINK-3603,1 51816U 22017BA  23242.16621304 -.00000157  00000-0  81984-5 0  9998,2 51816  53.2166 150.4892 0001391  94.7071 265.4080 15.08838261 84860,6917.886,95.438,540.713,538.788,0.0
51816.0,STARLINK-3603,PAYLOAD,2023-08-31 02:14:44,15.08844659,0.0001237,53.2167,146.3263,90.3955,269.7179,4.979e-05,5.05e-06,0.0,0 STARLINK-3603,1 51816U 22017BA  23243.09356879  .00000505  00000-0  49790-4 0  9997,2 51816  53.2167 146.3263 0001237  90.3955 269.7179 15.08844659 85123,6917.866,95.437,540.587,538.875,0.0
51816.0,STARLINK-3603,PAYLOAD,2023-08-31 03:50:07,15.08844597,0.000126,53.2167,146.0289,91.2453,268.8684,6.0307e-05,6.72e-06,0.0,0 STARLINK-3603,1 51816U 22017BA  23243.15980878  .00000672  00000-0  60307-4 0  9998,2 51816  53.2167 146.0289 0001260  91.2453 268.8684 15.08844597 85017,6917.866,95.437,540.603,538.86,0.0
51816.0,STARLINK-3603,PAYLOAD,2023-09-01 10:02:52,15.08541508,0.0001575,53.2176,140.3821,82.3094,277.8076,-0.0023335,-0.00036934,0.0,0 STARLINK-3603,1 51816U 22017BA  23244.41866724 -.00036934  00000-0 -23335-2 0  9991,2 51816  53.2176 140.3821 0001575  82.3094 277.8076 15.08541508 85322,6918.793,95.456,541.748,539.568,0.0
51816.0,STARLINK-3603,PAYLOAD,2023-09-02 01:57:24,15.08184415,9.77e-05,53.216,137.4125,74.7742,285.3358,-0.0050146,-0.00077827,0.0,0 STARLINK-3603,1 51816U 22017BA  23245.08153743 -.00077827  00000-0 -50146-2 0  9991,2 51816  53.2160 137.4125 0000977  74.7742 285.3358 15.08184415 85427,6919.885,95.479,542.426,541.074,0.0
51816.0,STARLINK-3603,PAYLOAD,2023-09-02 14:00:01,15.07181131,0.0001412,53.2144,135.1612,94.6657,111.1877,0.0024219,0.00036751,0.0,0 STARLINK-3603,1 51816U 22017BA  23245.58334491  .00036751  00000-0  24219-2 0  9998,2 51816  53.2144 135.1612 0001412  94.6657 111.1877 15.07181131 85508,6922.956,95.543,545.798,543.843,0.0
51816.0,STARLINK-3603,PAYLOAD,2023-09-02 22:00:00,15.07211383,0.0001489,53.2144,133.67,89.0682,126.4048,-0.001745,-0.00026751,0.0,0 STARLINK-3603,1 51816U 22017BA  23245.91667824 -.00026751  00000-0 -17450-2 0  9994,2 51816  53.2144 133.6700 0001489  89.0682 126.4048 15.07211383  5806,6922.863,95.541,545.759,543.697,0.0
51816.0,STARLINK-3603,PAYLOAD,2023-09-03 06:00:00,15.07186974,0.0001237,53.2141,132.1774,89.3525,135.7527,0.00058028,8.556e-05,0.0,0 STARLINK-3603,1 51816U 22017BA  23246.25001157  .00008556  00000-0  58028-3 0  9991,2 51816  53.2141 132.1774 0001237  89.3525 135.7527 15.07186974 85606,6922.938,95.542,545.659,543.946,0.0
51816.0,STARLINK-3603,PAYLOAD,2023-09-03 14:00:01,15.07175991,0.0001369,53.214,130.683,92.9677,141.751,0.0039147,0.00059764,0.0,0 STARLINK-3603,1 51816U 22017BA  23246.58334491  .00059764  00000-0  39147-2 0  9994,2 51816  53.2140 130.6830 0001369  92.9677 141.7510 15.07175991  5850,6922.971,95.543,545.784,543.889,0.0
51816.0,STARLINK-3603,PAYLOAD,2023-09-04 14:00:01,15.07186044,0.0001399,53.2143,126.2047,94.2251,169.3701,0.003369,0.00051346,0.0,0 STARLINK-3603,1 51816U 22017BA  23247.58334491  .00051346  00000-0  33690-2 0  9990,2 51816  53.2143 126.2047 0001399  94.2251 169.3701 15.07186044 85802,6922.94,95.542,545.774,543.837,0.0
51816.0,STARLINK-3603,PAYLOAD,2023-09-05 04:00:00,15.07181842,0.0001409,53.2145,123.5943,77.9274,112.5367,0.0015817,0.0002386,0.0,0 STARLINK-3603,1 51816U 22017BA  23248.16667824  .00023860  00000-0  15817-2 0  9995,2 51816  53.2145 123.5943 0001409  77.9274 112.5367 15.07181842 85892,6922.953,95.543,545.794,543.843,0.0
51816.0,STARLINK-3603,PAYLOAD,2023-09-05 14:00:01,15.07181723,0.0001396,53.2149,121.7266,88.9074,203.5825,0.003379,0.00051495,0.0,0 STARLINK-3603,1 51816U 22017BA  23248.58334491  .00051495  00000-0  33790-2 0  9997,2 51816  53.2149 121.7266 0001396  88.9074 203.5825 15.07181723  5855,6922.954,95.543,545.785,543.852,0.0
51816.0,STARLINK-3603,PAYLOAD,2023-09-06 01:26:22,15.07200803,0.0001437,53.2157,119.5931,85.6919,274.4237,6.1164e-05,6.48e-06,0.0,0 STARLINK-3603,1 51816U 22017BA  23249.05998840  .00000648  00000-0  61164-4 0  9996,2 51816  53.2157 119.5931 0001437  85.6919 274.4237 15.07200803 86029,6922.895,95.541,545.755,543.765,0.0
51816.0,STARLINK-3603,PAYLOAD,2023-09-06 22:07:43,15.07209599,0.0001536,53.2156,115.732,88.8243,271.2924,9.7781e-05,1.205e-05,0.0,0 STARLINK-3603,1 51816U 22017BA  23249.92203646  .00001205  00000-0  97781-4 0  9999,2 51816  53.2156 115.7320 0001536  88.8243 271.2924 15.07209599 86033,6922.868,95.541,545.797,543.67,0.0
51816.0,STARLINK-3603,PAYLOAD,2023-09-07 01:18:42,15.07211288,0.0001383,53.2172,115.1385,93.8878,266.2272,5.1425e-05,5e-06,0.0,0 STARLINK-3603,1 51816U 22017BA  23250.05465955  .00000500  00000-0  51425-4 0  9990,2 51816  53.2172 115.1385 0001383  93.8878 266.2272 15.07211288 86179,6922.863,95.541,545.686,543.771,0.0
51816.0,STARLINK-3603,PAYLOAD,2023-09-07 23:35:32,15.07220738,0.0001351,53.2178,110.9819,84.6637,275.4509,0.00011688,1.497e-05,0.0,0 STARLINK-3603,1 51816U 22017BA  23250.98301395  .00001497  00000-0  11688-3 0  9991,2 51816  53.2178 110.9819 0001351  84.6637 275.4509 15.07220738 86317,6922.834,95.54,545.635,543.764,0.0
51816.0,STARLINK-3603,PAYLOAD,2023-09-08 18:41:26,15.07201554,0.0001142,53.2177,107.4187,97.409,262.7031,-8.8458e-05,-1.629e-05,0.0,0 STARLINK-3603,1 51816U 22017BA  23251.77877544 -.00001629  00000-0 -88458-4 0  9992,2 51816  53.2177 107.4187 0001142  97.4090 262.7031 15.07201554 86435,6922.893,95.541,545.549,543.967,0.0
51816.0,STARLINK-3603,PAYLOAD,2023-09-08 21:52:24,15.07200297,0.0001267,53.2173,106.8247,91.8472,268.2665,-6.7147e-05,-1.305e-05,0.0,0 STARLINK-3603,1 51816U 22017BA  23251.91140027 -.00001305  00000-0 -67147-4 0  9990,2 51816  53.2173 106.8247 0001267  91.8472 268.2665 15.07200297 86337,6922.897,95.541,545.639,543.885,0.0
51816.0,STARLINK-3603,PAYLOAD,2023-09-09 07:25:20,15.07201939,0.0001176,53.2166,105.043,97.0818,263.0307,-5.6578e-05,-1.144e-05,0.0,0 STARLINK-3603,1 51816U 22017BA  23252.30927053 -.00001144  00000-0 -56578-4 0  9993,2 51816  53.2166 105.0430 0001176  97.0818 263.0307 15.07201939 86391,6922.892,95.541,545.571,543.943,0.0
51816.0,STARLINK-3603,PAYLOAD,2023-09-09 18:33:47,15.07091056,0.0001933,53.2172,102.9636,77.7929,282.3278,0.0017096,0.00025755,0.0,0 STARLINK-3603,1 51816U 22017BA  23252.77346378  .00025755  00000-0  17096-2 0  9991,2 51816  53.2172 102.9636 0001933  77.7929 282.3278 15.07091056 86580,6923.231,95.548,546.435,543.758,0.0
51816.0,STARLINK-3603,PAYLOAD,2023-09-10 00:55:42,15.07221481,0.0001248,53.2162,101.7761,101.1277,258.9854,-0.00026228,-4.275e-05,0.0,0 STARLINK-3603,1 51816U 22017BA  23253.03868811 -.00004275  00000-0 -26228-3 0  9996,2 51816  53.2162 101.7761 0001248 101.1277 258.9854 15.07221481 86623,6922.832,95.54,545.561,543.833,0.0
51816.0,STARLINK-3603,PAYLOAD,2023-09-10 13:39:38,15.07198048,0.0001222,53.2161,99.4008,101.4795,258.6334,0.00017774,2.423e-05,0.0,0 STARLINK-3603,1 51816U 22017BA  23253.56919891  .00002423  00000-0  17774-3 0  9996,2 51816  53.2161  99.4008 0001222 101.4795 258.6334 15.07198048 86586,6922.904,95.542,545.615,543.923,0.0
51816.0,STARLINK-3603,PAYLOAD,2023-09-10 20:01:36,15.07199936,0.0001234,53.2162,98.213,99.7018,260.4113,0.00019142,2.631e-05,0.0,0 STARLINK-3603,1 51816U 22017BA  23253.83444743  .00002631  00000-0  19142-3 0  9997,2 51816  53.2162  98.2130 0001234  99.7018 260.4113 15.07199936 86741,6922.898,95.541,545.617,543.909,0.0
51816.0,STARLINK-3603,PAYLOAD,2023-09-11 13:31:59,15.0720525,0.0001238,53.2162,94.9465,97.3544,262.7588,0.0002054,2.845e-05,0.0,0 STARLINK-3603,1 51816U 22017BA  23254.56387884  .00002845  00000-0  20540-3 0  9991,2 51816  53.2162  94.9465 0001238  97.3544 262.7588 15.07205250 86734,6922.882,95.541,545.604,543.89,0.0
51816.0,STARLINK-3603,PAYLOAD,2023-09-12 13:24:19,15.07204672,0.0001176,53.2152,90.4932,89.8199,270.2927,0.00013518,1.775e-05,0.0,0 STARLINK-3603,1 51816U 22017BA  23255.55855832  .00001775  00000-0  13518-3 0  9992,2 51816  53.2152  90.4932 0001176  89.8199 270.2927 15.07204672 86880,6922.883,95.541,545.563,543.934,0.0
